[
  {
    "id": 632,
    "wind2horizon_id": null,
    "lat": 43.81910329999999,
    "lng": 15.9189997,
    "name_en": "ACI Marina Skradin",
    "description_en": null
  },
  {
    "id": 86,
    "wind2horizon_id": null,
    "lat": 47.3180917,
    "lng": 13.1991778,
    "name_en": "Gut Berg Naturhotel",
    "description_en": "Airy rooms in a relaxed venue offering direct ski access, dining, a spa & an indoor pool."
  },
  {
    "id": 87,
    "wind2horizon_id": null,
    "lat": 47.3475428,
    "lng": 13.20184,
    "name_en": "sehen!wutscher",
    "description_en": null
  },
  {
    "id": 527,
    "wind2horizon_id": null,
    "lat": 45.075565,
    "lng": 13.636093,
    "name_en": "ACI Marina Rovinj",
    "description_en": null
  },
  {
    "id": 93,
    "wind2horizon_id": null,
    "lat": 44.87322990000001,
    "lng": 13.8502458,
    "name_en": "Pula Arena",
    "description_en": "Huge Roman amphitheater with an underground exhibition about ancient olive oil & wine production."
  },
  {
    "id": 2333,
    "wind2horizon_id": null,
    "lat": 45.21870753072248,
    "lng": 12.9848735910356,
    "name_en": null,
    "description_en": null
  },
  {
    "id": 427,
    "wind2horizon_id": null,
    "lat": 45.2025388,
    "lng": 13.5883683,
    "name_en": "Villa Romana beach lounge & restaurant",
    "description_en": null
  },
  {
    "id": 2083,
    "wind2horizon_id": null,
    "lat": 47.34251400000001,
    "lng": 13.1986437,
    "name_en": "Hotel Lerch",
    "description_en": "Polished chalet lodging offering kids’ activities & a spa with 2 pools, plus a restaurant."
  },
  {
    "id": 2074,
    "wind2horizon_id": null,
    "lat": 43.295828,
    "lng": 10.5971138,
    "name_en": "Podere Treggiaia",
    "description_en": null
  },
  {
    "id": 2397,
    "wind2horizon_id": null,
    "lat": 47.273843,
    "lng": 12.7574626,
    "name_en": "Kitzsteinhorn - Gletscherbahnen Kaprun AG",
    "description_en": null
  },
  {
    "id": 2026,
    "wind2horizon_id": null,
    "lat": 44.1234,
    "lng": 14.9876,
    "name_en": null,
    "description_en": null
  },
  {
    "id": 2621,
    "wind2horizon_id": null,
    "lat": 45.5135253,
    "lng": 13.5933814,
    "name_en": "Cacao Portorož",
    "description_en": null
  },
  {
    "id": 600,
    "wind2horizon_id": null,
    "lat": 44.9495486,
    "lng": 14.4158599,
    "name_en": "Apartment ACI Marina CRES",
    "description_en": null
  },
  {
    "id": 2893,
    "wind2horizon_id": null,
    "lat": 45.5279616,
    "lng": 13.5678655,
    "name_en": "Port Piran",
    "description_en": null
  },
  {
    "id": 2898,
    "wind2horizon_id": null,
    "lat": 45.3204658,
    "lng": 13.5637114,
    "name_en": "Marina Nautica Novigrad",
    "description_en": null
  },
  {
    "id": 2082,
    "wind2horizon_id": null,
    "lat": 45.1726543,
    "lng": 13.6055542,
    "name_en": "More",
    "description_en": null
  },
  {
    "id": 2526,
    "wind2horizon_id": null,
    "lat": 45.5498488,
    "lng": 13.7277917,
    "name_en": "Marina Koper",
    "description_en": null
  },
  {
    "id": 2030,
    "wind2horizon_id": null,
    "lat": 43.99888335973192,
    "lng": 14.747106919623922,
    "name_en": null,
    "description_en": null
  },
  {
    "id": 628,
    "wind2horizon_id": null,
    "lat": 44.11722,
    "lng": 15.2199087,
    "name_en": "Sea Organ",
    "description_en": "Large experimental musical instrument mounted beneath a staircase & played by the waves on the sea."
  },
  {
    "id": 2027,
    "wind2horizon_id": null,
    "lat": 44.12,
    "lng": 14.98,
    "name_en": null,
    "description_en": null
  },
  {
    "id": 2806,
    "wind2horizon_id": null,
    "lat": 45.4409582,
    "lng": 13.5132327,
    "name_en": "ACI Marina Umag",
    "description_en": null
  },
  {
    "id": 2530,
    "wind2horizon_id": null,
    "lat": 45.5255518,
    "lng": 13.5672595,
    "name_en": "Mejni prehod za mednarodni morski promet Piran",
    "description_en": null
  },
  {
    "id": 2899,
    "wind2horizon_id": null,
    "lat": 45.5371509,
    "lng": 13.7321521,
    "name_en": "Maxen Bencinski servis",
    "description_en": null
  },
  {
    "id": 665,
    "wind2horizon_id": null,
    "lat": 43.6252323,
    "lng": 15.5745049,
    "name_en": "Blitvenica Lighthouse",
    "description_en": null
  },
  {
    "id": 2532,
    "wind2horizon_id": null,
    "lat": 45.52798079999999,
    "lng": 13.5720991,
    "name_en": "Viewpoint",
    "description_en": null
  },
  {
    "id": 2528,
    "wind2horizon_id": null,
    "lat": 45.5396957,
    "lng": 13.6640576,
    "name_en": "Jahtni center Izola d.o.o.",
    "description_en": null
  },
  {
    "id": 2033,
    "wind2horizon_id": null,
    "lat": 47.1145299,
    "lng": 13.1370978,
    "name_en": "A-ROSA Collection Straubinger Grand Hotel Bad Gastein",
    "description_en": null
  },
  {
    "id": 2034,
    "wind2horizon_id": null,
    "lat": 47.42541139999999,
    "lng": 12.4202027,
    "name_en": "Golf Eichenheim",
    "description_en": null
  },
  {
    "id": 466,
    "wind2horizon_id": null,
    "lat": 45.0819593,
    "lng": 13.6316562,
    "name_en": "Rovinj Mali Raj",
    "description_en": null
  },
  {
    "id": 2076,
    "wind2horizon_id": null,
    "lat": 47.3469009,
    "lng": 13.2024019,
    "name_en": "Metzgerei Rettensteiner-Scharfetter",
    "description_en": null
  },
  {
    "id": 2078,
    "wind2horizon_id": null,
    "lat": 47.34846839999999,
    "lng": 13.2018103,
    "name_en": "Urban - Die Fleischerei",
    "description_en": null
  },
  {
    "id": 2901,
    "wind2horizon_id": null,
    "lat": 45.5355223,
    "lng": 13.6717353,
    "name_en": "Petrol, BS Izola - Industrijska",
    "description_en": null
  },
  {
    "id": 2902,
    "wind2horizon_id": null,
    "lat": 45.550768,
    "lng": 13.7277044,
    "name_en": "MOL",
    "description_en": null
  },
  {
    "id": 2529,
    "wind2horizon_id": null,
    "lat": 45.5049004,
    "lng": 13.5976743,
    "name_en": "Marina Portorož",
    "description_en": null
  },
  {
    "id": 2077,
    "wind2horizon_id": null,
    "lat": 45.5293377,
    "lng": 13.5658504,
    "name_en": "Fritolin Pri Cantini",
    "description_en": null
  },
  {
    "id": 517,
    "wind2horizon_id": null,
    "lat": 45.1493381,
    "lng": 13.6038832,
    "name_en": "Studenac Market",
    "description_en": null
  },
  {
    "id": 2081,
    "wind2horizon_id": null,
    "lat": 38.7401303,
    "lng": -9.1803574,
    "name_en": "Palace Fronteira",
    "description_en": "17th-century palace open for guided tours, with traditional azulejo tiling, paintings and furniture."
  },
  {
    "id": 2031,
    "wind2horizon_id": null,
    "lat": 43.8463981769064,
    "lng": 14.370066406249995,
    "name_en": null,
    "description_en": "Test of module B Now also a test whether the data is displayed in the map."
  },
  {
    "id": 561,
    "wind2horizon_id": null,
    "lat": 44.8731915,
    "lng": 13.8450158,
    "name_en": "ACI marina Pula",
    "description_en": null
  },
  {
    "id": 508,
    "wind2horizon_id": null,
    "lat": 45.1505492,
    "lng": 13.6052522,
    "name_en": "Viewpoint Casanova",
    "description_en": "Observation deck on a hilltop, with views over a yacht harbor, Vrsar old town & the Adriatic Sea."
  },
  {
    "id": 629,
    "wind2horizon_id": null,
    "lat": 43.7575498,
    "lng": 15.7800631,
    "name_en": "ACI Marina Vodice",
    "description_en": null
  },
  {
    "id": 899,
    "wind2horizon_id": null,
    "lat": 45.0589807,
    "lng": 13.6237276,
    "name_en": "Sveti Andrija",
    "description_en": "Tiny island in the Adriatic Sea featuring a hotel, a beach & a water-sports center."
  },
  {
    "id": 2527,
    "wind2horizon_id": null,
    "lat": 45.5331538,
    "lng": 13.6532217,
    "name_en": "Harbor Izola",
    "description_en": null
  },
  {
    "id": 630,
    "wind2horizon_id": null,
    "lat": 47.3226363,
    "lng": 13.1608855,
    "name_en": "Palermo Pizzeria",
    "description_en": null
  },
  {
    "id": 2028,
    "wind2horizon_id": null,
    "lat": 44.03892636133072,
    "lng": 15.055097809853564,
    "name_en": null,
    "description_en": null
  },
  {
    "id": 2903,
    "wind2horizon_id": null,
    "lat": 45.53846859999999,
    "lng": 13.6563578,
    "name_en": "DISCONT Oil – Bencinska črpalka Izola",
    "description_en": null
  },
  {
    "id": 89,
    "wind2horizon_id": null,
    "lat": 48.2040009,
    "lng": 16.3697963,
    "name_en": "Hotel Sacher Vienna",
    "description_en": "Elegant quarters in a ornate hotel with 2 refined restaurants, a terrace bar & a full-service spa."
  },
  {
    "id": 2889,
    "wind2horizon_id": null,
    "lat": 45.31783739999999,
    "lng": 13.5594487,
    "name_en": "Amore Bar",
    "description_en": null
  },
  {
    "id": 94,
    "wind2horizon_id": null,
    "lat": 45.2038392,
    "lng": 13.5947036,
    "name_en": "Skilift Porec",
    "description_en": null
  },
  {
    "id": 97,
    "wind2horizon_id": null,
    "lat": 47.8997807,
    "lng": 13.7583526,
    "name_en": "Seefunkschule Adlmanninger",
    "description_en": null
  },
  {
    "id": 516,
    "wind2horizon_id": null,
    "lat": 45.1508499,
    "lng": 13.5999246,
    "name_en": "Electric Vehicle Charging Station",
    "description_en": null
  },
  {
    "id": 2032,
    "wind2horizon_id": null,
    "lat": 43.655935077637004,
    "lng": 14.172312499999995,
    "name_en": null,
    "description_en": null
  },
  {
    "id": 573,
    "wind2horizon_id": null,
    "lat": 44.8439116,
    "lng": 13.8452287,
    "name_en": "Pitter d.o.o.",
    "description_en": null
  },
  {
    "id": 2904,
    "wind2horizon_id": null,
    "lat": 45.5052807,
    "lng": 13.5967624,
    "name_en": "MOL",
    "description_en": null
  },
  {
    "id": 2905,
    "wind2horizon_id": null,
    "lat": 45.5404958,
    "lng": 13.7260184,
    "name_en": "MOL",
    "description_en": null
  },
  {
    "id": 2906,
    "wind2horizon_id": null,
    "lat": 45.50043,
    "lng": 13.61022,
    "name_en": "MOL",
    "description_en": null
  },
  {
    "id": 2907,
    "wind2horizon_id": null,
    "lat": 45.5247017,
    "lng": 13.6507286,
    "name_en": "Petrol BS - Jagodje - South",
    "description_en": null
  },
  {
    "id": 2908,
    "wind2horizon_id": null,
    "lat": 45.5151236,
    "lng": 13.5807993,
    "name_en": "MOL",
    "description_en": null
  },
  {
    "id": 2909,
    "wind2horizon_id": null,
    "lat": 45.431259,
    "lng": 13.5265464,
    "name_en": "INA",
    "description_en": null
  },
  {
    "id": 2910,
    "wind2horizon_id": null,
    "lat": 45.4399661,
    "lng": 13.519012,
    "name_en": "INA",
    "description_en": null
  },
  {
    "id": 2911,
    "wind2horizon_id": null,
    "lat": 45.4312421,
    "lng": 13.5301577,
    "name_en": "Petrol",
    "description_en": null
  },
  {
    "id": 2912,
    "wind2horizon_id": null,
    "lat": 45.492115,
    "lng": 13.508227,
    "name_en": "Crodux",
    "description_en": null
  },
  {
    "id": 586,
    "wind2horizon_id": null,
    "lat": 44.821828,
    "lng": 13.9022051,
    "name_en": "ACI Marina Pomer",
    "description_en": null
  },
  {
    "id": 631,
    "wind2horizon_id": null,
    "lat": 43.7585415,
    "lng": 15.3460817,
    "name_en": "ACI Marina Piskera",
    "description_en": null
  },
  {
    "id": 2808,
    "wind2horizon_id": null,
    "lat": 41.0904424,
    "lng": 13.5594377,
    "name_en": "Amore Cucina & Bar",
    "description_en": "A Food Network chef serves wood-fired pizzas, Italian favorites, brunch & drinks in a warm setting."
  },
  {
    "id": 98,
    "wind2horizon_id": null,
    "lat": 47.34702619999999,
    "lng": 13.2021919,
    "name_en": "Johannes Stadtapotheke",
    "description_en": null
  },
  {
    "id": 2533,
    "wind2horizon_id": null,
    "lat": 45.52856389999999,
    "lng": 13.5683639,
    "name_en": "Tartinijev trg",
    "description_en": "A monument sits in the center of this bustling square surrounded by bars & restaurants."
  },
  {
    "id": 91,
    "wind2horizon_id": null,
    "lat": 47.35044120000001,
    "lng": 13.1940298,
    "name_en": "JET Tankstelle",
    "description_en": null
  },
  {
    "id": 2035,
    "wind2horizon_id": null,
    "lat": 47.1139945,
    "lng": 13.1369949,
    "name_en": "Urban Nature Bad Gastein - Badeschloss",
    "description_en": null
  },
  {
    "id": 2029,
    "wind2horizon_id": null,
    "lat": 44.13602924559946,
    "lng": 15.068412977946032,
    "name_en": null,
    "description_en": null
  },
  {
    "id": 2207,
    "wind2horizon_id": null,
    "lat": 47.3481374,
    "lng": 13.2015831,
    "name_en": "Farben Steger - Farben, Lacke, Künstler- und Malerbedarf, Wohnaccessoires, Kerzen, Räucherwerk",
    "description_en": null
  },
  {
    "id": 95,
    "wind2horizon_id": null,
    "lat": 47.3089895,
    "lng": 13.0902492,
    "name_en": "Golfclub Goldegg",
    "description_en": null
  },
  {
    "id": 2049,
    "wind2horizon_id": null,
    "lat": 47.4255636,
    "lng": 12.4200354,
    "name_en": "Gasthaus Eichenheim",
    "description_en": null
  },
  {
    "id": 2025,
    "wind2horizon_id": null,
    "lat": -33.866489,
    "lng": 151.1958561,
    "name_en": "Google Sydney - Pirrama Road",
    "description_en": null
  },
  {
    "id": 515,
    "wind2horizon_id": null,
    "lat": 45.1507961,
    "lng": 13.5994712,
    "name_en": "Restoran “Trošt”",
    "description_en": null
  },
  {
    "id": 2892,
    "wind2horizon_id": null,
    "lat": 45.5286508,
    "lng": 13.5686185,
    "name_en": "Tartini Square",
    "description_en": null
  },
  {
    "id": 2914,
    "wind2horizon_id": null,
    "lat": 45.299453,
    "lng": 13.622188,
    "name_en": "INA",
    "description_en": null
  },
  {
    "id": 99,
    "wind2horizon_id": null,
    "lat": 47.321454,
    "lng": 13.195048,
    "name_en": "Snow Space Salzburg - St. Johann im Pongau",
    "description_en": "Huge resort with 3 ski areas, mountain huts & modern cable cars, plus hiking trails in summer."
  },
  {
    "id": 2332,
    "wind2horizon_id": null,
    "lat": 47.3471104,
    "lng": 13.2041664,
    "name_en": "TUI ReiseCenter Reisebüro Stranger",
    "description_en": null
  },
  {
    "id": 2545,
    "wind2horizon_id": null,
    "lat": 45.5288905,
    "lng": 13.5656003,
    "name_en": "Restavracija Pavel",
    "description_en": null
  },
  {
    "id": 88,
    "wind2horizon_id": null,
    "lat": 48.207521,
    "lng": 16.378672,
    "name_en": "Plachutta Wollzeile",
    "description_en": "Smart venue for Tafelspitz boiled beef & other classics of Viennese cuisine, with outdoor seating."
  },
  {
    "id": 90,
    "wind2horizon_id": null,
    "lat": 48.1858124,
    "lng": 16.3127641,
    "name_en": "Schönbrunn Palace",
    "description_en": "18th-century summer palace with tours of lavish rococo ceremonial rooms, plus gardens with a maze."
  },
  {
    "id": 96,
    "wind2horizon_id": null,
    "lat": 47.8021621,
    "lng": 13.0432009,
    "name_en": "Hotel Sacher Salzburg",
    "description_en": "Lavish hotel offering 3 refined restaurants, a cafe & a chocolaterie, as well as river views."
  },
  {
    "id": 2079,
    "wind2horizon_id": null,
    "lat": 47.346309,
    "lng": 13.2017865,
    "name_en": "Hotel Alpenland St. Johann",
    "description_en": "Relaxed property offering a restaurant, a pub & a bar, plus an indoor pool, saunas & hot tubs."
  },
  {
    "id": 2080,
    "wind2horizon_id": null,
    "lat": 45.5169439,
    "lng": 13.5697685,
    "name_en": "Grand Hotel Bernardin",
    "description_en": "Laid-back seafront hotel featuring a spa & a seasonal indoor pool, plus dining, bars & a terrace."
  },
  {
    "id": 2887,
    "wind2horizon_id": null,
    "lat": 45.3176465,
    "lng": 13.5594377,
    "name_en": "Half 8 Restaurant, Novigrad",
    "description_en": null
  },
  {
    "id": 865,
    "wind2horizon_id": null,
    "lat": 45.0592216,
    "lng": 13.6241761,
    "name_en": "Maistra Select Island Hotel Istra",
    "description_en": "Refined resort on a secluded island, plus 5 restaurants, a modern spa & private beaches"
  },
  {
    "id": 92,
    "wind2horizon_id": null,
    "lat": 47.3134265,
    "lng": 13.1896781,
    "name_en": "Liechtensteinklamm",
    "description_en": "Deep, narrow gorge with footpaths, bridges, river & waterfall, only open in the summer months."
  },
  {
    "id": 100,
    "wind2horizon_id": null,
    "lat": 47.4430868,
    "lng": 12.3892092,
    "name_en": "Bergbahn AG Kitzbühel - KitzSki",
    "description_en": "Popular ski resort featuring a wide variety of challenging skiing & snowboarding slopes."
  },
  {
    "id": 2531,
    "wind2horizon_id": null,
    "lat": 45.527523,
    "lng": 13.5681324,
    "name_en": "Sergej Mašera Maritime Museum",
    "description_en": "Palace museum dating to 1800s housing a maritime museum with naval exhibits, photos & model ships."
  },
  {
    "id": 2895,
    "wind2horizon_id": null,
    "lat": 45.486393,
    "lng": 13.5984581,
    "name_en": "Sečovlje/Sicciole Saltpans Nature Park",
    "description_en": "Salt pans cultivated for around 700 years, in a park home to egrets, brine shrimp & rare plants."
  },
  {
    "id": 2896,
    "wind2horizon_id": null,
    "lat": 45.4900956,
    "lng": 13.4910909,
    "name_en": "Savudrija Lighthouse",
    "description_en": null
  },
  {
    "id": 2900,
    "wind2horizon_id": null,
    "lat": 45.59283,
    "lng": 13.72411,
    "name_en": "INA Lazaret",
    "description_en": null
  },
  {
    "id": 2913,
    "wind2horizon_id": null,
    "lat": 45.43249,
    "lng": 13.530883,
    "name_en": "Shell",
    "description_en": null
  },
  {
    "id": 2916,
    "wind2horizon_id": null,
    "lat": 45.3187536,
    "lng": 13.5739196,
    "name_en": "Crodux",
    "description_en": null
  },
  {
    "id": 2921,
    "wind2horizon_id": null,
    "lat": 45.2394883,
    "lng": 13.6243333,
    "name_en": "Petrol",
    "description_en": null
  },
  {
    "id": 2924,
    "wind2horizon_id": null,
    "lat": 45.22586620000001,
    "lng": 13.6015772,
    "name_en": "INA",
    "description_en": null
  },
  {
    "id": 2915,
    "wind2horizon_id": null,
    "lat": 45.31852199999999,
    "lng": 13.5648114,
    "name_en": "Petrol",
    "description_en": null
  },
  {
    "id": 2922,
    "wind2horizon_id": null,
    "lat": 45.2364008,
    "lng": 13.6039619,
    "name_en": "Petrol",
    "description_en": null
  },
  {
    "id": 2917,
    "wind2horizon_id": null,
    "lat": 45.29811429999999,
    "lng": 13.6217294,
    "name_en": "Aldo Commerce",
    "description_en": null
  },
  {
    "id": 2925,
    "wind2horizon_id": null,
    "lat": 45.1482682,
    "lng": 13.6042558,
    "name_en": "Crodux",
    "description_en": null
  },
  {
    "id": 2926,
    "wind2horizon_id": null,
    "lat": 45.2245414,
    "lng": 13.5962814,
    "name_en": "INA",
    "description_en": null
  },
  {
    "id": 2927,
    "wind2horizon_id": null,
    "lat": 45.21885779999999,
    "lng": 13.6488741,
    "name_en": "Petrol",
    "description_en": null
  },
  {
    "id": 2928,
    "wind2horizon_id": null,
    "lat": 45.22463130000001,
    "lng": 13.5950942,
    "name_en": "Ina",
    "description_en": null
  },
  {
    "id": 2929,
    "wind2horizon_id": null,
    "lat": 45.2070655,
    "lng": 13.6033321,
    "name_en": "Aldo Commerce Ltd. Porec",
    "description_en": null
  },
  {
    "id": 2930,
    "wind2horizon_id": null,
    "lat": 45.22103329999999,
    "lng": 13.6382312,
    "name_en": "Gas Oil",
    "description_en": null
  },
  {
    "id": 2931,
    "wind2horizon_id": null,
    "lat": 45.0906883,
    "lng": 13.6588764,
    "name_en": "INA",
    "description_en": null
  },
  {
    "id": 2932,
    "wind2horizon_id": null,
    "lat": 45.0799225,
    "lng": 13.6534463,
    "name_en": "Ina",
    "description_en": null
  },
  {
    "id": 2933,
    "wind2horizon_id": null,
    "lat": 45.07953759999999,
    "lng": 13.662411,
    "name_en": "Petrol",
    "description_en": null
  },
  {
    "id": 2934,
    "wind2horizon_id": null,
    "lat": 45.0844545,
    "lng": 13.6350083,
    "name_en": "INA",
    "description_en": null
  },
  {
    "id": 2936,
    "wind2horizon_id": null,
    "lat": 45.0922445,
    "lng": 13.6695332,
    "name_en": "Shell BS",
    "description_en": null
  },
  {
    "id": 2938,
    "wind2horizon_id": null,
    "lat": 44.82705079999999,
    "lng": 13.8790314,
    "name_en": "Petrol",
    "description_en": null
  },
  {
    "id": 2937,
    "wind2horizon_id": null,
    "lat": 44.83856309999999,
    "lng": 13.8432696,
    "name_en": "FLASH ENERGY",
    "description_en": null
  },
  {
    "id": 2935,
    "wind2horizon_id": null,
    "lat": 45.0847285,
    "lng": 13.6344352,
    "name_en": "Boat fueling station",
    "description_en": null
  },
  {
    "id": 2943,
    "wind2horizon_id": null,
    "lat": 44.9327085,
    "lng": 13.8913341,
    "name_en": "INA",
    "description_en": null
  },
  {
    "id": 2944,
    "wind2horizon_id": null,
    "lat": 44.93359239999999,
    "lng": 13.8893216,
    "name_en": "INA",
    "description_en": null
  },
  {
    "id": 2945,
    "wind2horizon_id": null,
    "lat": 44.8553489,
    "lng": 13.8426913,
    "name_en": "INA",
    "description_en": null
  },
  {
    "id": 2946,
    "wind2horizon_id": null,
    "lat": 44.87669570000001,
    "lng": 13.8533948,
    "name_en": "INA",
    "description_en": null
  },
  {
    "id": 2951,
    "wind2horizon_id": null,
    "lat": 44.925644,
    "lng": 13.803978,
    "name_en": "INA",
    "description_en": null
  },
  {
    "id": 2948,
    "wind2horizon_id": null,
    "lat": 44.8926855,
    "lng": 13.8462941,
    "name_en": "INA",
    "description_en": null
  },
  {
    "id": 2949,
    "wind2horizon_id": null,
    "lat": 44.8792396,
    "lng": 13.8664444,
    "name_en": "Crodux",
    "description_en": null
  },
  {
    "id": 2939,
    "wind2horizon_id": null,
    "lat": 44.82056840000001,
    "lng": 13.9312875,
    "name_en": "INA Medulin",
    "description_en": null
  },
  {
    "id": 2953,
    "wind2horizon_id": null,
    "lat": 44.8734465,
    "lng": 13.8472214,
    "name_en": "INA",
    "description_en": null
  },
  {
    "id": 2940,
    "wind2horizon_id": null,
    "lat": 44.8381197,
    "lng": 13.8433856,
    "name_en": "Boat Gas station Marina Veruda BP Crno Zlato",
    "description_en": null
  },
  {
    "id": 2941,
    "wind2horizon_id": null,
    "lat": 44.834197,
    "lng": 13.922191,
    "name_en": "Shell",
    "description_en": null
  },
  {
    "id": 2942,
    "wind2horizon_id": null,
    "lat": 44.8143153,
    "lng": 13.9274306,
    "name_en": "Petrol Station Flash, za brodove (boats)",
    "description_en": null
  },
  {
    "id": 2957,
    "wind2horizon_id": null,
    "lat": 44.8573716,
    "lng": 13.877445,
    "name_en": "Tankstella",
    "description_en": null
  },
  {
    "id": 2960,
    "wind2horizon_id": null,
    "lat": 44.9548735,
    "lng": 13.8493735,
    "name_en": "INA",
    "description_en": null
  },
  {
    "id": 2962,
    "wind2horizon_id": null,
    "lat": 45.0301159,
    "lng": 14.5875163,
    "name_en": "INA",
    "description_en": null
  },
  {
    "id": 2964,
    "wind2horizon_id": null,
    "lat": 44.9585424,
    "lng": 14.4101666,
    "name_en": "INA",
    "description_en": null
  },
  {
    "id": 2966,
    "wind2horizon_id": null,
    "lat": 44.9509484,
    "lng": 14.4146147,
    "name_en": "INA",
    "description_en": null
  },
  {
    "id": 2970,
    "wind2horizon_id": null,
    "lat": 44.5453817,
    "lng": 14.4554674,
    "name_en": "Adria Oil BP Mali Lošinj",
    "description_en": null
  },
  {
    "id": 2972,
    "wind2horizon_id": null,
    "lat": 45.1112391,
    "lng": 14.5460215,
    "name_en": "Adria Petrol",
    "description_en": null
  },
  {
    "id": 2976,
    "wind2horizon_id": null,
    "lat": 45.1254476,
    "lng": 14.7927579,
    "name_en": "INA",
    "description_en": null
  },
  {
    "id": 2978,
    "wind2horizon_id": null,
    "lat": 44.7578594,
    "lng": 14.7633297,
    "name_en": "INA",
    "description_en": null
  },
  {
    "id": 2980,
    "wind2horizon_id": null,
    "lat": 44.823513,
    "lng": 14.715167,
    "name_en": "Perductor d.o.o",
    "description_en": null
  },
  {
    "id": 2982,
    "wind2horizon_id": null,
    "lat": 44.7580686,
    "lng": 14.7625887,
    "name_en": "Tankstelle RAB Hafen",
    "description_en": null
  },
  {
    "id": 2984,
    "wind2horizon_id": null,
    "lat": 44.54743010000001,
    "lng": 14.8938699,
    "name_en": "INA",
    "description_en": null
  },
  {
    "id": 2986,
    "wind2horizon_id": null,
    "lat": 44.5344975,
    "lng": 14.9130783,
    "name_en": "Tifon",
    "description_en": null
  },
  {
    "id": 2990,
    "wind2horizon_id": null,
    "lat": 44.07645309999999,
    "lng": 15.193731,
    "name_en": "INA",
    "description_en": null
  },
  {
    "id": 2992,
    "wind2horizon_id": null,
    "lat": 44.1052121,
    "lng": 15.2600577,
    "name_en": "INA",
    "description_en": null
  },
  {
    "id": 2994,
    "wind2horizon_id": null,
    "lat": 44.1155374,
    "lng": 15.259644,
    "name_en": "INA",
    "description_en": null
  },
  {
    "id": 2996,
    "wind2horizon_id": null,
    "lat": 44.1178619,
    "lng": 15.2286932,
    "name_en": "INA",
    "description_en": null
  },
  {
    "id": 2998,
    "wind2horizon_id": null,
    "lat": 44.0948569,
    "lng": 15.2590458,
    "name_en": "Petrol",
    "description_en": null
  },
  {
    "id": 3000,
    "wind2horizon_id": null,
    "lat": 44.1375292,
    "lng": 15.2402687,
    "name_en": "Adria Oil BP Zadar",
    "description_en": null
  },
  {
    "id": 3002,
    "wind2horizon_id": null,
    "lat": 44.0500828,
    "lng": 15.3121901,
    "name_en": "Tri Bartola d.o.o.",
    "description_en": null
  },
  {
    "id": 3006,
    "wind2horizon_id": null,
    "lat": 44.1390771,
    "lng": 15.3107892,
    "name_en": "Petrol",
    "description_en": null
  },
  {
    "id": 2961,
    "wind2horizon_id": null,
    "lat": 44.85750059999999,
    "lng": 13.87769,
    "name_en": "Gas Oil Pula",
    "description_en": null
  },
  {
    "id": 2963,
    "wind2horizon_id": null,
    "lat": 45.0244483,
    "lng": 14.5707578,
    "name_en": "INA",
    "description_en": null
  },
  {
    "id": 2967,
    "wind2horizon_id": null,
    "lat": 45.029034,
    "lng": 14.497961,
    "name_en": "Gas station Valbiska",
    "description_en": null
  },
  {
    "id": 2969,
    "wind2horizon_id": null,
    "lat": 44.5341392,
    "lng": 14.4722168,
    "name_en": "INA",
    "description_en": null
  },
  {
    "id": 2971,
    "wind2horizon_id": null,
    "lat": 44.5338295,
    "lng": 14.4633172,
    "name_en": "INA",
    "description_en": null
  },
  {
    "id": 2975,
    "wind2horizon_id": null,
    "lat": 45.0391533,
    "lng": 14.5694439,
    "name_en": "In'sol",
    "description_en": null
  },
  {
    "id": 2977,
    "wind2horizon_id": null,
    "lat": 45.125895,
    "lng": 14.788212,
    "name_en": "INA",
    "description_en": null
  },
  {
    "id": 2979,
    "wind2horizon_id": null,
    "lat": 44.74775,
    "lng": 14.7891886,
    "name_en": "INA",
    "description_en": null
  },
  {
    "id": 2981,
    "wind2horizon_id": null,
    "lat": 44.7121691,
    "lng": 14.9193095,
    "name_en": "INA",
    "description_en": null
  },
  {
    "id": 2983,
    "wind2horizon_id": null,
    "lat": 44.441341,
    "lng": 15.061923,
    "name_en": "INA",
    "description_en": null
  },
  {
    "id": 2985,
    "wind2horizon_id": null,
    "lat": 44.5298226,
    "lng": 15.069826,
    "name_en": "INA",
    "description_en": null
  },
  {
    "id": 2987,
    "wind2horizon_id": null,
    "lat": 44.54933459999999,
    "lng": 14.9021366,
    "name_en": "Lukoil",
    "description_en": null
  },
  {
    "id": 2989,
    "wind2horizon_id": null,
    "lat": 44.4376284,
    "lng": 15.0647818,
    "name_en": "Rijeka Trans",
    "description_en": null
  },
  {
    "id": 2991,
    "wind2horizon_id": null,
    "lat": 44.13192900000001,
    "lng": 15.2115527,
    "name_en": "INA",
    "description_en": null
  },
  {
    "id": 2993,
    "wind2horizon_id": null,
    "lat": 44.1178978,
    "lng": 15.228701,
    "name_en": "INA",
    "description_en": null
  },
  {
    "id": 2997,
    "wind2horizon_id": null,
    "lat": 44.11058389999999,
    "lng": 15.2340203,
    "name_en": "INA",
    "description_en": null
  },
  {
    "id": 2999,
    "wind2horizon_id": null,
    "lat": 44.0527655,
    "lng": 15.2974138,
    "name_en": "Asmira Marine Fuel Station",
    "description_en": null
  },
  {
    "id": 3001,
    "wind2horizon_id": null,
    "lat": 44.0527413,
    "lng": 15.297396,
    "name_en": "Petrol Station",
    "description_en": null
  },
  {
    "id": 3003,
    "wind2horizon_id": null,
    "lat": 44.2269856,
    "lng": 15.1790813,
    "name_en": "Petrol",
    "description_en": null
  },
  {
    "id": 3007,
    "wind2horizon_id": null,
    "lat": 44.118574,
    "lng": 15.271994,
    "name_en": "Shell BS Zadar Crno",
    "description_en": null
  },
  {
    "id": 3008,
    "wind2horizon_id": null,
    "lat": 44.121267,
    "lng": 15.2609898,
    "name_en": "LPG kamp gas fill station",
    "description_en": null
  },
  {
    "id": 3010,
    "wind2horizon_id": null,
    "lat": 44.114187,
    "lng": 15.40713,
    "name_en": "Shell",
    "description_en": null
  },
  {
    "id": 3012,
    "wind2horizon_id": null,
    "lat": 45.3600742,
    "lng": 14.4935488,
    "name_en": "INA",
    "description_en": null
  },
  {
    "id": 3014,
    "wind2horizon_id": null,
    "lat": 45.3635043,
    "lng": 14.3265821,
    "name_en": "INA",
    "description_en": null
  },
  {
    "id": 3016,
    "wind2horizon_id": null,
    "lat": 45.3564626,
    "lng": 14.4874776,
    "name_en": "Ina",
    "description_en": null
  },
  {
    "id": 3018,
    "wind2horizon_id": null,
    "lat": 45.3420561,
    "lng": 14.3712217,
    "name_en": "INA",
    "description_en": null
  },
  {
    "id": 3020,
    "wind2horizon_id": null,
    "lat": 45.2871904,
    "lng": 14.546653,
    "name_en": "Ina RIJEKA PUNILIŠTE",
    "description_en": null
  },
  {
    "id": 3022,
    "wind2horizon_id": null,
    "lat": 45.33434889999999,
    "lng": 14.4217676,
    "name_en": "INA",
    "description_en": null
  },
  {
    "id": 3024,
    "wind2horizon_id": null,
    "lat": 45.3417116,
    "lng": 14.371831,
    "name_en": "INA",
    "description_en": null
  },
  {
    "id": 3026,
    "wind2horizon_id": null,
    "lat": 45.3608874,
    "lng": 14.3296183,
    "name_en": "Petrol",
    "description_en": null
  },
  {
    "id": 3028,
    "wind2horizon_id": null,
    "lat": 45.4431236,
    "lng": 14.2734547,
    "name_en": "Crodux Brgud Zapad",
    "description_en": null
  },
  {
    "id": 3030,
    "wind2horizon_id": null,
    "lat": 45.3742499,
    "lng": 14.3867563,
    "name_en": "Adria Oil BP Viškovo",
    "description_en": null
  },
  {
    "id": 3032,
    "wind2horizon_id": null,
    "lat": 45.33541210000001,
    "lng": 14.3110078,
    "name_en": "Ina",
    "description_en": null
  },
  {
    "id": 3034,
    "wind2horizon_id": null,
    "lat": 45.296351,
    "lng": 14.2757542,
    "name_en": "INA",
    "description_en": null
  },
  {
    "id": 3036,
    "wind2horizon_id": null,
    "lat": 45.3551753,
    "lng": 14.3496619,
    "name_en": "Crodux - Vrata Jadrana South",
    "description_en": null
  },
  {
    "id": 3011,
    "wind2horizon_id": null,
    "lat": 44.2855676,
    "lng": 15.1229848,
    "name_en": "Tri Bartola d.o.o.",
    "description_en": null
  },
  {
    "id": 3015,
    "wind2horizon_id": null,
    "lat": 45.328088,
    "lng": 14.4479858,
    "name_en": "INA",
    "description_en": null
  },
  {
    "id": 3017,
    "wind2horizon_id": null,
    "lat": 45.3862753,
    "lng": 14.313788,
    "name_en": "INA",
    "description_en": null
  },
  {
    "id": 3019,
    "wind2horizon_id": null,
    "lat": 45.4420942,
    "lng": 14.2751499,
    "name_en": "Petrol Crodux Brgud East",
    "description_en": null
  },
  {
    "id": 3021,
    "wind2horizon_id": null,
    "lat": 45.3484305,
    "lng": 14.4199107,
    "name_en": "INA",
    "description_en": null
  },
  {
    "id": 3023,
    "wind2horizon_id": null,
    "lat": 45.2719051,
    "lng": 14.5768156,
    "name_en": "Petrol",
    "description_en": null
  },
  {
    "id": 3025,
    "wind2horizon_id": null,
    "lat": 45.332861,
    "lng": 14.3026401,
    "name_en": "Ina",
    "description_en": null
  },
  {
    "id": 3029,
    "wind2horizon_id": null,
    "lat": 45.3730757,
    "lng": 14.3390351,
    "name_en": "Adria Oil BP Spinčići",
    "description_en": null
  },
  {
    "id": 3031,
    "wind2horizon_id": null,
    "lat": 45.2566899,
    "lng": 14.5810568,
    "name_en": "Tifon",
    "description_en": null
  },
  {
    "id": 3033,
    "wind2horizon_id": null,
    "lat": 45.3553562,
    "lng": 14.3534385,
    "name_en": "Crodux - Vrata Jadrana North",
    "description_en": null
  },
  {
    "id": 3035,
    "wind2horizon_id": null,
    "lat": 45.3722451,
    "lng": 14.3577942,
    "name_en": "Tifon",
    "description_en": null
  },
  {
    "id": 3038,
    "wind2horizon_id": null,
    "lat": 45.36312789999999,
    "lng": 14.4910799,
    "name_en": "Petrol",
    "description_en": null
  },
  {
    "id": 3039,
    "wind2horizon_id": null,
    "lat": 45.358184,
    "lng": 14.3271482,
    "name_en": "Adria Oil BP Opatija",
    "description_en": null
  },
  {
    "id": 3040,
    "wind2horizon_id": null,
    "lat": 45.323124,
    "lng": 14.4677187,
    "name_en": "INA",
    "description_en": null
  },
  {
    "id": 3041,
    "wind2horizon_id": null,
    "lat": 45.2563509,
    "lng": 14.5813226,
    "name_en": "Tifon",
    "description_en": null
  },
  {
    "id": 3043,
    "wind2horizon_id": null,
    "lat": 45.3342598,
    "lng": 14.4160594,
    "name_en": "INA",
    "description_en": null
  },
  {
    "id": 3044,
    "wind2horizon_id": null,
    "lat": 45.285028,
    "lng": 14.534661,
    "name_en": "INA",
    "description_en": null
  },
  {
    "id": 3045,
    "wind2horizon_id": null,
    "lat": 45.3254457,
    "lng": 14.477691,
    "name_en": "Ina",
    "description_en": null
  },
  {
    "id": 3046,
    "wind2horizon_id": null,
    "lat": 45.3542047,
    "lng": 14.3656205,
    "name_en": "Adria Oil BP Martinkovac",
    "description_en": null
  },
  {
    "id": 3047,
    "wind2horizon_id": null,
    "lat": 45.3295162,
    "lng": 14.5092148,
    "name_en": "Adria Oil BP Kukuljanovo",
    "description_en": null
  },
  {
    "id": 2958,
    "wind2horizon_id": null,
    "lat": 44.8618367,
    "lng": 13.8632213,
    "name_en": "Petrol",
    "description_en": null
  },
  {
    "id": 2968,
    "wind2horizon_id": null,
    "lat": 45.0241543,
    "lng": 14.5737785,
    "name_en": "Krk boat fuel station",
    "description_en": null
  },
  {
    "id": 2974,
    "wind2horizon_id": null,
    "lat": 44.9742854,
    "lng": 14.7434823,
    "name_en": "Benzinska postaja In’Sol",
    "description_en": null
  },
  {
    "id": 2988,
    "wind2horizon_id": null,
    "lat": 44.5570496,
    "lng": 14.8813777,
    "name_en": "Sea Gas Point Novalja",
    "description_en": null
  },
  {
    "id": 3004,
    "wind2horizon_id": null,
    "lat": 44.140518,
    "lng": 15.228063,
    "name_en": "Shell",
    "description_en": null
  },
  {
    "id": 3042,
    "wind2horizon_id": null,
    "lat": 45.3084576,
    "lng": 14.4925455,
    "name_en": "Ina Industrija Nafte D.D. - Služba Održavanja Rafinerije Nafte",
    "description_en": null
  },
  {
    "id": 3048,
    "wind2horizon_id": null,
    "lat": 45.32371879999999,
    "lng": 14.5114535,
    "name_en": "Rijeka Trans D.O.O. BP",
    "description_en": null
  },
  {
    "id": 3050,
    "wind2horizon_id": null,
    "lat": 45.3553104,
    "lng": 14.3915237,
    "name_en": "Petrol",
    "description_en": null
  },
  {
    "id": 3052,
    "wind2horizon_id": null,
    "lat": 45.3098795,
    "lng": 14.4880617,
    "name_en": "INA",
    "description_en": null
  },
  {
    "id": 3054,
    "wind2horizon_id": null,
    "lat": 45.3825235,
    "lng": 14.3834932,
    "name_en": "Petrol, PM Rijeka - Viškovo",
    "description_en": null
  },
  {
    "id": 3056,
    "wind2horizon_id": null,
    "lat": 45.340117,
    "lng": 14.4130269,
    "name_en": "Ina",
    "description_en": null
  },
  {
    "id": 2959,
    "wind2horizon_id": null,
    "lat": 44.8575902,
    "lng": 13.8773086,
    "name_en": "Myjnia samochodowa",
    "description_en": null
  },
  {
    "id": 2965,
    "wind2horizon_id": null,
    "lat": 45.0241133,
    "lng": 14.5737744,
    "name_en": "Crno Zlato d o o BP KRK",
    "description_en": null
  },
  {
    "id": 2973,
    "wind2horizon_id": null,
    "lat": 45.123068,
    "lng": 14.527419,
    "name_en": "Trgovina Krk d.d. Petrol station",
    "description_en": null
  },
  {
    "id": 2995,
    "wind2horizon_id": null,
    "lat": 44.19007819999999,
    "lng": 15.1805238,
    "name_en": "Petrol",
    "description_en": null
  },
  {
    "id": 3005,
    "wind2horizon_id": null,
    "lat": 44.1395167,
    "lng": 15.3104242,
    "name_en": "Petrol Murvica West",
    "description_en": null
  },
  {
    "id": 3009,
    "wind2horizon_id": null,
    "lat": 44.10154199999999,
    "lng": 15.2536782,
    "name_en": "Tri Bartola",
    "description_en": null
  },
  {
    "id": 3013,
    "wind2horizon_id": null,
    "lat": 45.2768923,
    "lng": 14.5708358,
    "name_en": "INA",
    "description_en": null
  },
  {
    "id": 3027,
    "wind2horizon_id": null,
    "lat": 45.3487792,
    "lng": 14.4949469,
    "name_en": "Petrol",
    "description_en": null
  },
  {
    "id": 3037,
    "wind2horizon_id": null,
    "lat": 45.2173052,
    "lng": 14.5641424,
    "name_en": "Gas Station GPP Mikic",
    "description_en": null
  },
  {
    "id": 3049,
    "wind2horizon_id": null,
    "lat": 45.3436969,
    "lng": 14.4088104,
    "name_en": "Crodux",
    "description_en": null
  },
  {
    "id": 3051,
    "wind2horizon_id": null,
    "lat": 45.335311,
    "lng": 14.4182236,
    "name_en": "CRODUX Rijeka, Mlaka - grupa Petrol",
    "description_en": null
  },
  {
    "id": 3053,
    "wind2horizon_id": null,
    "lat": 45.3358648,
    "lng": 14.51435,
    "name_en": "Rijeka Trans Pumpa",
    "description_en": null
  },
  {
    "id": 3055,
    "wind2horizon_id": null,
    "lat": 45.31403,
    "lng": 14.24979,
    "name_en": "INA Kvarner",
    "description_en": null
  }
]